     2.100          NAVIGATION                              RINEX VERSION / TYPE
fic2rin                                 02/28/2015 00:26:10 PGM / RUN BY / DATE
                                                            END OF HEADER
22 15  2 27 14  0  0.0  .322896987200D-03  .397903932026D-11  .000000000000D+00
     .880000000000D+02  .318750000000D+01  .569202280988D-08  .256049859836D+01
     .987201929092D-07  .754492008127D-02  .658631324768D-05  .515369593620D+04
     .482400000000D+06  .186264514923D-08  .724376930327D+00 -.126659870148D-06
     .923150236776D+00  .232875000000D+03 -.206674035162D+01 -.844963767561D-08
    -.464305054455D-11  .100000000000D+01  .183300000000D+04  .000000000000D+00
     .240000000000D+01  .000000000000D+00 -.176951289177D-07  .880000000000D+02
     .475206000000D+06  .400000000000D+01
23 15  2 27 14  0  0.0 -.916644930840D-04 -.261479726760D-11  .000000000000D+00
     .600000000000D+02  .229375000000D+02  .486020244694D-08  .300965112405D+00
     .117905437946D-05  .980711460579D-02  .854767858982D-05  .515365847015D+04
     .482400000000D+06  .502914190292D-07  .179381678650D+01  .800937414169D-07
     .948843995115D+00  .204187500000D+03 -.271208978314D+01 -.830248868912D-08
    -.482520098899D-09  .100000000000D+01  .183300000000D+04  .000000000000D+00
     .240000000000D+01  .000000000000D+00 -.200234353542D-07  .600000000000D+02
     .475206000000D+06  .400000000000D+01
24 15  2 27 14  0  0.0 -.441302545369D-04 -.568434188608D-12  .000000000000D+00
     .101000000000D+03  .664062500000D+02  .455447542647D-08 -.392404436831D+00
     .335089862347D-05  .309863348957D-02  .768713653088D-05  .515368611145D+04
     .482400000000D+06  .353902578354D-07  .282079555076D+01  .353902578354D-07
     .954518635327D+00  .227250000000D+03  .301136825340D+00 -.817034032747D-08
    -.975040614355D-10  .100000000000D+01  .183300000000D+04  .000000000000D+00
     .240000000000D+01  .000000000000D+00  .232830643654D-08  .101000000000D+03
     .475206000000D+06  .400000000000D+01
25 15  2 27 14  0  0.0 -.694394111633D-05 -.295585778076D-11  .000000000000D+00
     .680000000000D+02  .115625000000D+01  .409409910709D-08 -.238290626689D+01
     .745058059692D-07  .425928446930D-02  .417605042458D-05  .515371805954D+04
     .482400000000D+06 -.931322574615D-08 -.240192074358D+01 -.372529029846D-07
     .977940072272D+00  .308562500000D+03  .661814805643D+00 -.801176229349D-08
     .960754304987D-10  .100000000000D+01  .183300000000D+04  .000000000000D+00
     .240000000000D+01  .000000000000D+00  .512227416039D-08  .680000000000D+02
     .475206000000D+06  .400000000000D+01
27 15  2 27 14  0  0.0  .543808564544D-04  .261479726760D-11  .000000000000D+00
     .120000000000D+02 -.780312500000D+02  .432053711057D-08  .163360337761D+01
    -.415742397308D-05  .206565542612D-02  .756420195103D-05  .515369371414D+04
     .482400000000D+06  .223517417908D-07 -.135675320286D+01  .298023223877D-07
     .966127387678D+00  .234500000000D+03  .134325035634D+00 -.807355058150D-08
    -.357157734196D-11  .100000000000D+01  .183300000000D+04  .000000000000D+00
     .240000000000D+01  .000000000000D+00  .186264514923D-08  .120000000000D+02
     .475206000000D+06  .400000000000D+01
28 15  2 27 14  0  0.0  .422433018684D-03  .261479726760D-11  .000000000000D+00
     .480000000000D+02 -.506250000000D+01  .383658838073D-08  .233912984338D+01
    -.441446900368D-06  .196677453350D-01  .328384339809D-05  .515369081688D+04
     .482400000000D+06  .240281224251D-06 -.233223728437D+01 -.931322574615D-07
     .988491184591D+00  .327187500000D+03 -.166852733419D+01 -.771174979676D-08
     .714315468392D-12  .100000000000D+01  .183300000000D+04  .000000000000D+00
     .240000000000D+01  .000000000000D+00 -.111758708954D-07  .480000000000D+02
     .475206000000D+06  .400000000000D+01
29 15  2 27 14  0  0.0  .594684854150D-03  .227373675443D-11  .000000000000D+00
     .430000000000D+02 -.678125000000D+02  .412767193410D-08 -.189791442654D+01
    -.347569584846D-05  .132680905517D-02  .745058059692D-05  .515355368614D+04
     .482400000000D+06 -.130385160446D-07 -.130021352277D+01  .260770320892D-07
     .972098890541D+00  .243000000000D+03 -.828915054999D+00 -.793925927344D-08
     .725030200418D-10  .100000000000D+01  .183300000000D+04  .000000000000D+00
     .240000000000D+01  .000000000000D+00 -.977888703346D-08  .430000000000D+02
     .475206000000D+06  .400000000000D+01
30 15  2 27 14  0  0.0 -.828546471894D-04  .193267624127D-11  .000000000000D+00
     .350000000000D+02  .840312500000D+02  .441946980294D-08 -.109795934173D+01
     .427104532719D-05  .104757421650D-02  .762566924095D-05  .515377151489D+04
     .482400000000D+06 -.540167093277D-07  .291067627202D+01 -.763684511185D-07
     .957033135494D+00  .230906250000D+03  .291310719276D+01 -.808283668259D-08
     .821462788651D-11  .100000000000D+01  .183300000000D+04  .000000000000D+00
     .240000000000D+01  .000000000000D+00  .325962901115D-08  .350000000000D+02
     .475206000000D+06  .400000000000D+01
31 15  2 27 14  0  0.0  .322344247252D-03 -.909494701773D-12  .000000000000D+00
     .111000000000D+03  .654375000000D+02  .410695678552D-08 -.133947518359D+01
     .336766242981D-05  .826633255929D-02  .747479498386D-05  .515373799133D+04
     .482400000000D+06 -.838190317154D-07  .286746715205D+01 -.745058059692D-08
     .976211905201D+00  .247781250000D+03 -.542102674375D+00 -.795854579109D-08
     .696457581682D-10  .100000000000D+01  .183300000000D+04  .000000000000D+00
     .240000000000D+01  .000000000000D+00 -.135041773319D-07  .111000000000D+03
     .475206000000D+06  .400000000000D+01
32 15  2 27 14  0  0.0 -.213583000004D-03  .920863385545D-11  .000000000000D+00
     .230000000000D+02  .503125000000D+01  .529200614758D-08 -.723539038145D+00
     .271946191788D-06  .113123635529D-01  .662356615067D-05  .515356551552D+04
     .482400000000D+06  .178813934326D-06  .823129448063D+00 -.111758708954D-06
     .947160739629D+00  .245875000000D+03  .240362151020D-01 -.840749306298D-08
     .378587198248D-10  .100000000000D+01  .183300000000D+04  .000000000000D+00
     .240000000000D+01  .000000000000D+00 -.372529029846D-08  .230000000000D+02
     .475206000000D+06  .400000000000D+01
22 15  2 27 13 59 44.0  .322908628732D-03  .420641299570D-11  .000000000000D+00
     .200000000000D+02  .318750000000D+01  .569202280988D-08  .255816405467D+01
     .987201929092D-07  .754492694978D-02  .658631324768D-05  .515369593239D+04
     .482384000000D+06  .186264514923D-08  .724377069304D+00 -.126659870148D-06
     .923150236776D+00  .232875000000D+03 -.206673952946D+01 -.844963767561D-08
    -.464305054455D-11  .100000000000D+01  .183300000000D+04  .000000000000D+00
     .240000000000D+01  .000000000000D+00 -.176951289177D-07  .200000000000D+02
     .476736000000D+06  .400000000000D+01
 1 15  2 27 13 59 44.0 -.853696838021D-05  .454747350886D-12  .000000000000D+00
     .100000000000D+02 -.205937500000D+02  .458054794106D-08 -.634799128195D+00
    -.103749334812D-05  .391809374560D-02  .946782529354D-05  .515366935921D+04
     .482384000000D+06  .968575477600D-07 -.299982938465D+00  .596046447754D-07
     .962227735230D+00  .197937500000D+03  .398137091985D+00 -.800676208521D-08
     .360014996070D-09  .100000000000D+01  .183300000000D+04  .000000000000D+00
     .240000000000D+01  .000000000000D+00  .558793544769D-08  .100000000000D+02
     .477306000000D+06  .400000000000D+01
 1 15  2 27 15 59 44.0 -.853370875120D-05  .454747350886D-12  .000000000000D+00
     .110000000000D+02 -.165625000000D+02  .453268880468D-08  .415411274016D+00
    -.886619091034D-06  .391911447514D-02  .925920903683D-05  .515367131233D+04
     .489584000000D+06  .521540641785D-07 -.300040697397D+00  .614672899246D-07
     .962230239746D+00  .203968750000D+03  .398109943151D+00 -.802640576059D-08
     .356443418728D-09  .100000000000D+01  .183300000000D+04  .000000000000D+00
     .240000000000D+01  .000000000000D+00  .558793544769D-08  .110000000000D+02
     .482406000000D+06  .400000000000D+01
22 15  2 27 15 59 44.0  .322938431054D-03  .420641299570D-11  .000000000000D+00
     .210000000000D+02  .131250000000D+01  .572202405956D-08 -.267485917780D+01
    -.745058059692D-07  .754536560271D-02  .634044408798D-05  .515369512177D+04
     .489584000000D+06  .184401869774D-06  .724315277107D+00 -.596046447754D-07
     .923150352346D+00  .236000000000D+03 -.206672520164D+01 -.852214069565D-08
     .125005206969D-09  .100000000000D+01  .183300000000D+04  .000000000000D+00
     .240000000000D+01  .000000000000D+00 -.176951289177D-07  .210000000000D+02
     .482406000000D+06  .400000000000D+01
 2 15  2 27 16  0  0.0  .550524331629D-03  .227373675443D-11  .000000000000D+00
     .320000000000D+02 -.187187500000D+02  .503592405216D-08  .981399120127D+00
    -.987201929092D-06  .144237527857D-01  .961124897003D-05  .515377645111D+04
     .489600000000D+06 -.124797224998D-06 -.335654140428D+00  .143423676491D-06
     .940818492364D+00  .184156250000D+03 -.231182452425D+01 -.840249285470D-08
     .233581158164D-09  .100000000000D+01  .183300000000D+04  .000000000000D+00
     .240000000000D+01  .000000000000D+00 -.204890966415D-07  .320000000000D+02
     .482406000000D+06  .400000000000D+01
 3 15  2 27 16  0  0.0  .231293495744D-03  .190993887372D-10  .000000000000D+00
     .820000000000D+02  .334375000000D+01  .493306262472D-08  .268042503981D+01
     .197440385818D-06  .943811726756D-03  .702403485775D-05  .515373411751D+04
     .489600000000D+06 -.260770320892D-07  .740085782698D+00  .000000000000D+00
     .959499486639D+00  .246406250000D+03 -.292842162047D+01 -.813783897366D-08
     .596453416107D-10  .100000000000D+01  .183300000000D+04  .000000000000D+00
     .240000000000D+01  .000000000000D+00  .139698386192D-08  .820000000000D+02
     .482406000000D+06  .400000000000D+01
